ONEWEB-0118             
1 47264U 20100G   23330.65452489  .00000462  00000+0  12482-2 0  9990
2 47264  87.9013 176.3119 0002164  91.1659 268.9717 13.12442528142273
ONEWEB-0119             
1 47265U 20100H   23330.60685425 -.00000298  00000+0 -86260-3 0  9999
2 47265  87.9013 176.3591 0001970  99.7118 260.4233 13.12442212142243
ONEWEB-0120             
1 47266U 20100J   23330.63625356  .00000401  00000+0  10783-2 0  9990
2 47266  87.9015 176.3432 0001731  89.2225 270.9102 13.12442001142278
ONEWEB-0121             
1 47267U 20100K   23330.61799093 -.00000158  00000+0 -47501-3 0  9999
2 47267  87.9011 176.3453 0001364  80.0534 280.0748 13.12447056142185
ONEWEB-0122             
1 47268U 20100L   23330.61318593  .00002184  00000+0  60334-2 0  9999
2 47268  87.9011 176.3500 0001509  93.1930 266.9371 13.12464408142090
ONEWEB-0123             
1 47269U 20100M   23330.60844463 -.00000342  00000+0 -98497-3 0  9997
2 47269  87.9012 176.3575 0001535  85.0635 275.0669 13.12443953142234
ONEWEB-0124             
1 47270U 20100N   23330.59736034 -.00000193  00000+0 -57273-3 0  9992
2 47270  87.9011 176.3557 0001215  77.0452 283.0813 13.12454604142110
ONEWEB-0125             
1 47271U 20100P   23330.64817532  .00000542  00000+0  14713-2 0  9999
2 47271  87.8949 176.3099 0001738  73.8901 286.2419 13.12442611142183
